COSMOS 2251 DEB         
1 34432U 93036RZ  17346.53615701  .00000297  00000-0  19728-3 0  9994
2 34432  73.8297 172.0809 0194311  53.8025 337.9775 13.96735457448820
